id,address,city_id,city,state_id,state,zip_code,country,longitude,latitude,created_at,updated_at,deleted_at
d77449bd-d599-4429-afcc-9a0ae09489b0,"Jl. Raya Pupuan No. 123, Desa Pupuan",128,Gianyar,1,Bali,80552,Indonesia,115.3456,-8.5432,2024-06-10 08:23:27.895740+00:00,2024-06-10 08:23:27.895740+00:00,
3e52ee75-a7df-4fb4-b81a-3106a255b332,"Jl. Serangan No. 67, Denpasar Selatan",114,Denpasar,1,Bali,80235,Indonesia,115.2345,-8.6789,2024-06-10 08:24:56.702597+00:00,2024-06-10 08:24:56.702597+00:00,
537009fb-89f4-4fdc-9ee2-24c4a728e6b8,"Jl. Raya Singaraja No. 89, Buleleng",94,Buleleng,1,Bali,81151,Indonesia,115.0987,-8.1234,2024-06-10 08:25:32.109421+00:00,2024-06-10 08:25:32.109421+00:00,
e254c9cd-1ff7-4e6f-a381-75475c393aa1,"Jl. Raya Negara No. 23, Jembrana",161,Jembrana,1,Bali,82261,Indonesia,114.6543,-8.3456,2024-06-10 08:25:56.834399+00:00,2024-06-10 08:25:56.834399+00:00,
ed129443-a558-436f-9cf6-fef3641bf178,"Jl. Gatot Subroto No. 45, Jakarta Pusat",153,Jakarta Pusat,6,DKI Jakarta,10270,Indonesia,106.8272,-6.1756,2024-06-10 08:26:58.507211+00:00,2024-06-10 08:26:58.507211+00:00,
1e74908e-c828-4411-98e2-a8931ed6fe25,"Jl. Ir. H. Juanda No. 89, Medan",283,Medan,34,Sumatera Utara,20153,Indonesia,98.6722,3.5952,2024-06-10 08:27:31.972401+00:00,2024-06-10 08:27:31.972401+00:00,
d6b1edaf-37ce-4fe2-8306-c5f92788daec,"Jl. Gajah Mada No. 89, Malang",266,Malang,11,Jawa Timur,65119,Indonesia,112.6373,-7.9806,2024-06-10 08:27:59.765500+00:00,2024-06-10 08:27:59.765500+00:00,
aba75454-1822-4b34-9652-8abb5ce746db,"Jl. Jenderal Sudirman No. 67, Yogyakarta",555,Yogyakarta,5,DI Yogyakarta,55233,Indonesia,110.3639,-7.7956,2024-06-10 08:28:30.507786+00:00,2024-06-10 08:28:30.507786+00:00,
fbc5ebd2-d527-4efc-ad8c-baf99363c648,"Villa Bekasi Indah 2, Blok J2 No.27, RT.2/RW.38",54,Bekasi,9,Jawa Barat,17837,Indonesia,147.3272,-42.8821,2024-06-12 04:46:58.103211+00:00,2024-06-12 04:46:58.103211+00:00,
86c76e1a-f28e-4d50-a12c-6fb210a1a996,"Perumahan Anggrek Selatan 2, No 30",54,Bekasi,9,Jawa Barat,17837,Indonesia,147.3272,-42.8821,2024-06-15 08:19:51.226757+00:00,2024-06-15 08:19:51.226757+00:00,
815040b1-e9ad-4df4-990e-8b7fb31e0945,"Komplek Permata Hijau, Kav. 10",34,Bandung,9,Jawa Barat,40123,Indonesia,107.6191,-6.9059,2024-06-15 08:34:48.269966+00:00,2024-06-15 08:34:48.269966+00:00,
35ef1dad-4a8b-4ba6-907a-3e5917fdccba,Jl. Wijaya Kusuma No. 15,73,Jakarta Selatan,1,DKI Jakarta,12160,Indonesia,106.8148,-6.2245,2024-06-15 08:34:57.718362+00:00,2024-06-15 08:34:57.718362+00:00,
d2123b64-0852-46ec-93d4-1533727ea7d9,"Jl. Merdeka No.10, Kel. Menteng, Kec. Menteng",67,Jakarta Pusat,1,DKI Jakarta,10310,Indonesia,106.8272,-6.1902,2024-06-16 07:54:19.452423+00:00,2024-06-16 07:54:19.452423+00:00,
1f51d2d8-5df2-4c0a-8a34-9a33a3287411,"Jl. Merdeka No.10, Kel. Menteng, Kec. Menteng",67,Jakarta Pusat,1,DKI Jakarta,10310,Indonesia,106.8272,-6.1902,2024-06-16 07:57:18.592752+00:00,2024-06-16 07:57:18.592752+00:00,
df154b68-4d04-4b9a-b4b7-ec33eda645f4,"Jl. Merdeka No.10, Kel. Menteng, Kec. Menteng",67,Jakarta Pusat,1,DKI Jakarta,10310,Indonesia,106.8272,-6.1902,2024-06-16 07:58:42.053516+00:00,2024-06-16 07:58:42.053516+00:00,
2be38c2b-2788-45f7-bd7c-4ee6ede1fd20,"Jl. Merdeka No.10, Kel. Menteng, Kec. Menteng",67,Jakarta Pusat,1,DKI Jakarta,10310,Indonesia,106.8272,-6.1902,2024-06-16 08:02:49.393259+00:00,2024-06-16 08:02:49.393259+00:00,
cfc3cdf0-6ffc-4592-a47a-613729b18e30,"Jl. Merdeka No.10, Kel. Menteng, Kec. Menteng",67,Jakarta Pusat,1,DKI Jakarta,10310,Indonesia,106.8272,-6.1902,2024-06-16 08:13:44.932205+00:00,2024-06-16 08:13:44.932205+00:00,
bea8b95b-e857-4cf5-9082-a807442a2893,"Jl. Merdeka No.10, Kel. Menteng, Kec. Menteng",67,Jakarta Pusat,1,DKI Jakarta,10310,Indonesia,106.8272,-6.1902,2024-06-16 08:15:40.865901+00:00,2024-06-16 08:15:40.865901+00:00,
b428b297-a782-441a-9ffa-5b0783d4b36a,"Jl. Merdeka No.10, Kel. Menteng, Kec. Menteng",67,Jakarta Pusat,1,DKI Jakarta,10310,Indonesia,106.8272,-6.1902,2024-06-16 08:26:54.754633+00:00,2024-06-16 08:26:54.754633+00:00,
e67eb025-37bb-4890-bee8-e16449cbbf25,"Jl. Merdeka No.10, Kel. Menteng, Kec. Menteng",67,Jakarta Pusat,1,DKI Jakarta,10310,Indonesia,106.8272,-6.1902,2024-06-16 08:28:11.383485+00:00,2024-06-16 08:28:11.383485+00:00,
01edebb0-8a26-499b-855c-7004d8f694ee,"Jl. Merdeka No.10, Kel. Menteng, Kec. Menteng",67,Jakarta Pusat,1,DKI Jakarta,10310,Indonesia,106.8272,-6.1902,2024-06-16 08:32:55.157169+00:00,2024-06-16 08:32:55.157169+00:00,
5ef7068b-8edf-4182-9044-772d2977ecd8,"Jl. Merdeka No.10, Kel. Menteng, Kec. Menteng",67,Jakarta Pusat,1,DKI Jakarta,10310,Indonesia,106.8272,-6.1902,2024-06-16 08:37:02.751459+00:00,2024-06-16 08:37:02.751459+00:00,
8bcb831e-f83e-40fa-bf33-89827e0a5eda,"Jl. Merdeka No.10, Kel. Menteng, Kec. Menteng",67,Jakarta Pusat,1,DKI Jakarta,10310,Indonesia,106.8272,-6.1902,2024-06-16 08:39:12.535996+00:00,2024-06-16 08:39:12.535996+00:00,
55294b9f-9791-432c-84f8-5d76f900092e,"Jl. Merdeka No.10, Kel. Menteng, Kec. Menteng",67,Jakarta Pusat,1,DKI Jakarta,10310,Indonesia,106.8272,-6.1902,2024-06-16 08:43:32.591413+00:00,2024-06-16 08:43:32.591413+00:00,
51839146-213c-4eec-ad15-1e36a6e919c6,"Jl. Merdeka No.10, Kel. Menteng, Kec. Menteng",67,Jakarta Pusat,1,DKI Jakarta,10310,Indonesia,106.8272,-6.1902,2024-06-16 08:50:08.895408+00:00,2024-06-16 08:50:08.895408+00:00,
6d903905-1b34-401d-a0fa-8730494e8680,"Jl. Merdeka No.10, Kel. Menteng, Kec. Menteng",67,Jakarta Pusat,1,DKI Jakarta,10310,Indonesia,106.8272,-6.1902,2024-06-16 09:00:08.697730+00:00,2024-06-16 09:00:08.697730+00:00,
a0222fdb-d4fc-4155-875c-474217f6abd9,"Jl. Merdeka No.10, Kel. Menteng, Kec. Menteng",67,Jakarta Pusat,1,DKI Jakarta,10310,Indonesia,106.8272,-6.1902,2024-06-16 09:03:14.555805+00:00,2024-06-16 09:03:14.555805+00:00,
a4d47e73-8b9f-4010-9a67-91a6dc03d032,"Jl. Merdeka No.10, Kel. Menteng, Kec. Menteng",67,Jakarta Pusat,1,DKI Jakarta,10310,Indonesia,106.8272,-6.1902,2024-06-16 09:07:40.836593+00:00,2024-06-16 09:07:40.836593+00:00,
fc4c525c-b68d-4f93-a446-8991357b0cae,"Jl. Merdeka No.10, Kel. Menteng, Kec. Menteng",67,Jakarta Pusat,1,DKI Jakarta,10310,Indonesia,106.8272,-6.1902,2024-06-16 09:11:19.323169+00:00,2024-06-16 09:11:19.323169+00:00,
3fe8a371-aa75-49e8-ae8c-6621d3cdeff2,"Jl. Merdeka No.10, Kel. Menteng, Kec. Menteng",67,Jakarta Pusat,1,DKI Jakarta,10310,Indonesia,106.8272,-6.1902,2024-06-16 09:16:39.531229+00:00,2024-06-16 09:16:39.531229+00:00,
34dc36e8-bf4d-4887-b6d3-8f5a4993de41,"Jl. Merdeka No.10, Kel. Menteng, Kec. Menteng",67,Jakarta Pusat,1,DKI Jakarta,10310,Indonesia,106.8272,-6.1902,2024-06-16 09:30:28.263675+00:00,2024-06-16 09:30:28.263675+00:00,
c7542ad4-0c23-4d65-b941-bcd80a7a87ea,"Jl. Merdeka No.10, Kel. Menteng, Kec. Menteng",67,Jakarta Pusat,1,DKI Jakarta,10310,Indonesia,106.8272,-6.1902,2024-06-16 10:36:04.659917+00:00,2024-06-16 10:36:04.659917+00:00,
7a09a2c4-bfc1-402a-be62-7331acedd5c9,"Jl. Merdeka No.10, Kel. Menteng, Kec. Menteng",67,Jakarta Pusat,1,DKI Jakarta,10310,Indonesia,106.8272,-6.1902,2024-06-17 18:27:29.948258+00:00,2024-06-17 18:27:29.948258+00:00,
81b0ba25-2e0d-44fd-9183-b9e23716c251,"Jl. Merdeka No.10, Kel. Menteng, Kec. Menteng",67,Jakarta Pusat,1,DKI Jakarta,10310,Indonesia,106.8272,-6.1902,2024-06-17 18:29:19.798097+00:00,2024-06-17 18:29:19.798097+00:00,
76310b63-593e-403d-86e3-fb1eed25a471,"Jl. Merdeka No.10, Kel. Menteng, Kec. Menteng",67,Jakarta Pusat,1,DKI Jakarta,10310,Indonesia,106.8272,-6.1902,2024-06-17 18:37:27.718362+00:00,2024-06-17 18:37:27.718362+00:00,
6b270384-f649-46b4-b987-c2ddba48d035,"Jl. Merdeka No.10, Kel. Menteng, Kec. Menteng",67,Jakarta Pusat,1,DKI Jakarta,10310,Indonesia,106.8272,-6.1902,2024-06-17 18:41:00.196902+00:00,2024-06-17 18:41:00.196902+00:00,
4051d38e-4211-415a-ab8f-2197f5afb522,"Jl. Merdeka No.10, Kel. Menteng, Kec. Menteng",67,Jakarta Pusat,1,DKI Jakarta,10310,Indonesia,106.8272,-6.1902,2024-06-17 18:53:50.873322+00:00,2024-06-17 18:53:50.873322+00:00,
16ba7ce5-944b-4e50-af6c-5d6c40367093,"Jl. Merdeka No.10, Kel. Menteng, Kec. Menteng",67,Jakarta Pusat,1,DKI Jakarta,10310,Indonesia,106.8272,-6.1902,2024-06-17 18:56:46.359307+00:00,2024-06-17 18:56:46.359307+00:00,
c69469ff-2972-4444-aae1-01390d5d2d5e,"Jl. Merdeka No.10, Kel. Menteng, Kec. Menteng",67,Jakarta Pusat,1,DKI Jakarta,10310,Indonesia,106.8272,-6.1902,2024-06-18 08:48:22.427796+00:00,2024-06-18 08:48:22.427796+00:00,
7e1b641e-5a34-43c7-ba03-09e78c7f1e52,"Jl. Merdeka No.10, Kel. Menteng, Kec. Menteng",67,Jakarta Pusat,1,DKI Jakarta,10310,Indonesia,106.8272,-6.1902,2024-06-18 17:19:02.061656+00:00,2024-06-18 17:19:02.061656+00:00,
cd611ea2-ba7f-4ad9-8c66-e2a9cbc954aa,"Jl. Merdeka No.10, Kel. Menteng, Kec. Menteng",67,Jakarta Pusat,1,DKI Jakarta,10310,Indonesia,106.8272,-6.1902,2024-06-18 19:17:19.655657+00:00,2024-06-18 19:17:19.655657+00:00,
5d61a48b-d476-427c-95cc-05a34b13bc68,"Jl. Merdeka No.10, Kel. Menteng, Kec. Menteng",67,Jakarta Pusat,1,DKI Jakarta,10310,Indonesia,106.8272,-6.1902,2024-06-18 19:22:03.922170+00:00,2024-06-18 19:22:03.922170+00:00,
b3eaeba0-5330-47f5-87f3-74d94303d042,"Jl. Merdeka No.10, Kel. Menteng, Kec. Menteng",67,Jakarta Pusat,1,DKI Jakarta,10310,Indonesia,106.8272,-6.1902,2024-06-18 19:25:51.380570+00:00,2024-06-18 19:25:51.380570+00:00,
2902efed-ff93-4c3f-95b2-06703257344f,"Jl. Merdeka No.10, Kel. Menteng, Kec. Menteng",67,Jakarta Pusat,1,DKI Jakarta,10310,Indonesia,106.8272,-6.1902,2024-06-18 19:28:07.057535+00:00,2024-06-18 19:28:07.057535+00:00,
df2025af-d91d-4905-aad4-f61dcd2b875b,"Jl. Merdeka No.10, Kel. Menteng, Kec. Menteng",67,Jakarta Pusat,1,DKI Jakarta,10310,Indonesia,106.8272,-6.1902,2024-06-18 19:32:36.366654+00:00,2024-06-18 19:32:36.366654+00:00,
1cb34fc5-a5b3-48d1-a2f4-7b0880fee256,"Jl. Merdeka No.10, Kel. Menteng, Kec. Menteng",67,Jakarta Pusat,1,DKI Jakarta,10310,Indonesia,106.8272,-6.1902,2024-06-18 19:36:31.767447+00:00,2024-06-18 19:36:31.767447+00:00,
cd7224ae-b95c-4987-bb0d-3d4da681bb78,"Jl. Merdeka No.10, Kel. Menteng, Kec. Menteng",67,Jakarta Pusat,1,DKI Jakarta,10310,Indonesia,106.8272,-6.1902,2024-06-18 19:43:35.169286+00:00,2024-06-18 19:43:35.169286+00:00,
9475e110-f64c-4483-9b17-37e05d2bdcf5,"Jl. Merdeka No.10, Kel. Menteng, Kec. Menteng",67,Jakarta Pusat,1,DKI Jakarta,10310,Indonesia,106.8272,-6.1902,2024-06-18 19:56:51.027880+00:00,2024-06-18 19:56:51.027880+00:00,
6cb16fa2-ed0f-4db6-978a-4d4d2d0e6603,"Jl. Merdeka No.10, Kel. Menteng, Kec. Menteng",67,Jakarta Pusat,1,DKI Jakarta,10310,Indonesia,106.8272,-6.1902,2024-06-18 20:04:50.012283+00:00,2024-06-18 20:04:50.012283+00:00,
9a5f0482-8875-4406-bcb8-f6b1812d8cfc,"Jl. Merdeka No.10, Kel. Menteng, Kec. Menteng",67,Jakarta Pusat,1,DKI Jakarta,10310,Indonesia,106.8272,-6.1902,2024-06-18 20:11:39.769785+00:00,2024-06-18 20:11:39.769785+00:00,
65ce26ff-58fd-482c-807c-3fcf5cb35683,"Jl. Merdeka No.10, Kel. Menteng, Kec. Menteng",67,Jakarta Pusat,1,DKI Jakarta,10310,Indonesia,106.8272,-6.1902,2024-06-18 20:33:15.070791+00:00,2024-06-18 20:33:15.070791+00:00,
0a4f28f2-1f2d-4b86-9113-b19d52762af5,"Jl. Merdeka No.10, Kel. Menteng, Kec. Menteng",67,Jakarta Pusat,1,DKI Jakarta,10310,Indonesia,106.8272,-6.1902,2024-06-18 20:39:05.066510+00:00,2024-06-18 20:39:05.066510+00:00,
39357d4b-b159-493e-95dd-e51e7eba91aa,"Jl. Merdeka No.10, Kel. Menteng, Kec. Menteng",67,Jakarta Pusat,1,DKI Jakarta,10310,Indonesia,106.8272,-6.1902,2024-06-18 20:46:25.050567+00:00,2024-06-18 20:46:25.050567+00:00,
afc48b5a-1e46-42c8-9d33-f9456fcfda31,"Jl. Merdeka No.10, Kel. Menteng, Kec. Menteng",67,Jakarta Pusat,1,DKI Jakarta,10310,Indonesia,106.8272,-6.1902,2024-06-18 20:48:40.200386+00:00,2024-06-18 20:48:40.200386+00:00,
7de416bd-c7a8-4fb8-8734-a025b14d157a,"Jl. Merdeka No.10, Kel. Menteng, Kec. Menteng",67,Jakarta Pusat,1,DKI Jakarta,10310,Indonesia,106.8272,-6.1902,2024-06-18 21:14:01.075257+00:00,2024-06-18 21:14:01.075257+00:00,
b15058d1-0276-4d67-a8fa-50568421613c,"Jl. Merdeka No.10, Kel. Menteng, Kec. Menteng",67,Jakarta Pusat,1,DKI Jakarta,10310,Indonesia,106.8272,-6.1902,2024-06-22 18:38:44.897799+00:00,2024-06-22 18:38:44.897799+00:00,
e5e21e7e-ec49-42e9-981e-0977783a3ed8,"Jl. Merdeka No.10, Kel. Menteng, Kec. Menteng",67,Jakarta Pusat,1,DKI Jakarta,10310,Indonesia,106.8272,-6.1902,2024-06-22 18:47:58.964962+00:00,2024-06-22 18:47:58.964962+00:00,
0f0989de-0be5-485d-a5f8-7ce87cffb228,"Jl. Merdeka No.10, Kel. Menteng, Kec. Menteng",67,Jakarta Pusat,1,DKI Jakarta,10310,Indonesia,106.8272,-6.1902,2024-06-22 18:55:55.385815+00:00,2024-06-22 18:55:55.385815+00:00,
23e43e8e-9c60-4216-89a0-b4913d06fb37,"Jl. Merdeka No.10, Kel. Menteng, Kec. Menteng",67,Jakarta Pusat,1,DKI Jakarta,10310,Indonesia,106.8272,-6.1902,2024-06-22 19:03:20.384237+00:00,2024-06-22 19:03:20.384237+00:00,
1a8e2b7b-ebe9-4fff-a5af-ed64591338bf,"Jl. Merdeka No.10, Kel. Menteng, Kec. Menteng",67,Jakarta Pusat,1,DKI Jakarta,10310,Indonesia,106.8272,-6.1902,2024-06-22 19:06:05.622595+00:00,2024-06-22 19:06:05.622595+00:00,
5552039d-0f11-47fe-a2ef-b543b2f80a37,"Jl. Merdeka No.10, Kel. Menteng, Kec. Menteng",67,Jakarta Pusat,1,DKI Jakarta,10310,Indonesia,106.8272,-6.1902,2024-06-22 19:17:08.545332+00:00,2024-06-22 19:17:08.545332+00:00,
3854e4cb-4d16-44c6-8d4c-3cac3ddbfab0,"Jl. Merdeka No.10, Kel. Menteng, Kec. Menteng",67,Jakarta Pusat,1,DKI Jakarta,10310,Indonesia,106.8272,-6.1902,2024-06-22 19:33:38.690136+00:00,2024-06-22 19:33:38.690136+00:00,
a9538752-9396-4624-8fd9-11734f7b46ac,"Jl. Merdeka No.10, Kel. Menteng, Kec. Menteng",67,Jakarta Pusat,1,DKI Jakarta,10310,Indonesia,106.8272,-6.1902,2024-06-22 20:01:32.640093+00:00,2024-06-22 20:01:32.640093+00:00,
774df7df-69d3-473d-b1c2-536b8990fd68,"Jl. Merdeka No.10, Kel. Menteng, Kec. Menteng",67,Jakarta Pusat,1,DKI Jakarta,10310,Indonesia,106.8272,-6.1902,2024-06-22 21:26:58.413757+00:00,2024-06-22 21:26:58.413757+00:00,
8419c54f-802d-4fd5-85c9-e33ce933ac0c,"Jl. Merdeka No.10, Kel. Menteng, Kec. Menteng",67,Jakarta Pusat,1,DKI Jakarta,10310,Indonesia,106.8272,-6.1902,2024-06-22 21:41:11.125943+00:00,2024-06-22 21:41:11.125943+00:00,
b6a2de13-c041-4e7d-89bb-f9967ffe89e4,"Jl. Merdeka No.10, Kel. Menteng, Kec. Menteng",67,Jakarta Pusat,1,DKI Jakarta,10310,Indonesia,106.8272,-6.1902,2024-06-22 21:53:02.558745+00:00,2024-06-22 21:53:02.558745+00:00,
fea9bb74-f99c-49c1-bc9c-1bb002f05122,"Jl. Merdeka No.10, Kel. Menteng, Kec. Menteng",67,Jakarta Pusat,1,DKI Jakarta,10310,Indonesia,106.8272,-6.1902,2024-06-22 22:02:03.162143+00:00,2024-06-22 22:02:03.162143+00:00,
465f4781-8015-44fa-9081-ae27627c14e9,"Jl. Merdeka No.10, Kel. Menteng, Kec. Menteng",67,Jakarta Pusat,1,DKI Jakarta,10310,Indonesia,106.8272,-6.1902,2024-06-22 22:10:23.902743+00:00,2024-06-22 22:10:23.902743+00:00,
63d23278-5930-4a43-ac0f-48a695e4c8fd,"Jl. Merdeka No.10, Kel. Menteng, Kec. Menteng",67,Jakarta Pusat,1,DKI Jakarta,10310,Indonesia,106.8272,-6.1902,2024-06-22 22:18:06.498979+00:00,2024-06-22 22:18:06.498979+00:00,
2eaaede4-7822-4bf3-8d25-cc600398e5b2,"Jl. Merdeka No.10, Kel. Menteng, Kec. Menteng",67,Jakarta Pusat,1,DKI Jakarta,10310,Indonesia,106.8272,-6.1902,2024-06-22 23:14:10.744762+00:00,2024-06-22 23:14:10.744762+00:00,
afb66b6e-e79c-4bff-a5c8-211f90377cd9,Jl. Wijaya Kusuma No. 15,73,Jakarta Selatan,1,DKI Jakarta,12160,Indonesia,106.8148,-6.2245,2024-06-23 02:53:48.329596+00:00,2024-06-23 02:53:48.329596+00:00,
61f0b76a-8601-4143-836a-c7b287a6e314,"Jl. Merdeka No.10, Kel. Menteng, Kec. Menteng",67,Jakarta Pusat,1,DKI Jakarta,10310,Indonesia,106.8272,-6.1902,2024-06-23 11:07:28.566581+00:00,2024-06-23 11:07:28.566581+00:00,
50bce409-5bc1-4aa6-8983-c0eb2820c0bb,"Jl. Merdeka No.10, Kel. Menteng, Kec. Menteng",67,Jakarta Pusat,1,DKI Jakarta,10310,Indonesia,106.8272,-6.1902,2024-06-23 11:27:37.880992+00:00,2024-06-23 11:27:37.880992+00:00,
1e4d12ea-c223-4bf5-a4bf-f2b193f75c40,"Jl. Merdeka No.10, Kel. Menteng, Kec. Menteng",67,Jakarta Pusat,1,DKI Jakarta,10310,Indonesia,106.8272,-6.1902,2024-06-23 11:41:09.717007+00:00,2024-06-23 11:41:09.717007+00:00,
ae1e924b-b12a-4c12-8737-fa0b1b8d9ead,"Jl. Merdeka No.10, Kel. Menteng, Kec. Menteng",67,Jakarta Pusat,1,DKI Jakarta,10310,Indonesia,106.8272,-6.1902,2024-06-23 11:45:30.476335+00:00,2024-06-23 11:45:30.476335+00:00,
451d583f-298e-4f3b-94dc-7917b39fde67,"Jl. Merdeka No.10, Kel. Menteng, Kec. Menteng",67,Jakarta Pusat,1,DKI Jakarta,10310,Indonesia,106.8272,-6.1902,2024-06-23 11:56:57.234683+00:00,2024-06-23 11:56:57.234683+00:00,
beae7e7b-f8f5-40aa-b9f2-a982ad355b4b,"Jl. Merdeka No.10, Kel. Menteng, Kec. Menteng",67,Jakarta Pusat,1,DKI Jakarta,10310,Indonesia,106.8272,-6.1902,2024-06-23 12:02:38.935192+00:00,2024-06-23 12:02:38.935192+00:00,
3e4c9de5-271e-4e9f-bde1-0ef464fce899,"Jl. Merdeka No.10, Kel. Menteng, Kec. Menteng",67,Jakarta Pusat,1,DKI Jakarta,10310,Indonesia,106.8272,-6.1902,2024-06-23 12:06:15.016503+00:00,2024-06-23 12:06:15.016503+00:00,
d6e09db5-5ccd-4993-ae2c-723fc2d7d431,"Jl. Merdeka No.10, Kel. Menteng, Kec. Menteng",67,Jakarta Pusat,1,DKI Jakarta,10310,Indonesia,106.8272,-6.1902,2024-06-23 12:12:06.099938+00:00,2024-06-23 12:12:06.099938+00:00,
c3d6b593-3459-467e-8a00-cdbea7c59b14,"Jl. Merdeka No.10, Kel. Menteng, Kec. Menteng",67,Jakarta Pusat,1,DKI Jakarta,10310,Indonesia,106.8272,-6.1902,2024-06-23 12:19:21.165887+00:00,2024-06-23 12:19:21.165887+00:00,
68c760e6-4411-42d0-bfa2-3e4b6dd41294,"Jl. Merdeka No.10, Kel. Menteng, Kec. Menteng",67,Jakarta Pusat,1,DKI Jakarta,10310,Indonesia,106.8272,-6.1902,2024-06-23 12:28:29.220404+00:00,2024-06-23 12:28:29.220404+00:00,
39d1e402-9d19-473e-ba00-7b046805da54,"Jl. Merdeka No.10, Kel. Menteng, Kec. Menteng",67,Jakarta Pusat,1,DKI Jakarta,10310,Indonesia,106.8272,-6.1902,2024-06-23 12:33:18.454517+00:00,2024-06-23 12:33:18.454517+00:00,
815497aa-1ef8-4034-b092-c5a2735a41f0,"Jl. Merdeka No.10, Kel. Menteng, Kec. Menteng",67,Jakarta Pusat,1,DKI Jakarta,10310,Indonesia,106.8272,-6.1902,2024-06-23 12:54:49.122460+00:00,2024-06-23 12:54:49.122460+00:00,
e3748c9b-34ab-4d08-bbfc-5299da371fe7,"Jl. Merdeka No.10, Kel. Menteng, Kec. Menteng",67,Jakarta Pusat,1,DKI Jakarta,10310,Indonesia,106.8272,-6.1902,2024-06-23 13:00:39.746484+00:00,2024-06-23 13:00:39.746484+00:00,
4d4d892a-cd29-4bed-93d5-2b71b80c91f9,"Jl. Merdeka No.10, Kel. Menteng, Kec. Menteng",67,Jakarta Pusat,1,DKI Jakarta,10310,Indonesia,106.8272,-6.1902,2024-06-23 13:11:00.617634+00:00,2024-06-23 13:11:00.617634+00:00,
db3cee48-5487-4397-8073-098f3529d8d2,"Jl. Merdeka No.10, Kel. Menteng, Kec. Menteng",67,Jakarta Pusat,1,DKI Jakarta,10310,Indonesia,106.8272,-6.1902,2024-06-23 13:37:11.050494+00:00,2024-06-23 13:37:11.050494+00:00,
41b9a6d1-0fca-4c41-9d12-f4ef6198bba0,"Jl. Merdeka No.10, Kel. Menteng, Kec. Menteng",67,Jakarta Pusat,1,DKI Jakarta,10310,Indonesia,106.8272,-6.1902,2024-06-23 13:44:34.549767+00:00,2024-06-23 13:44:34.549767+00:00,
a0223be7-92cd-4ed4-a0a7-b9afd0034473,Jl. Wijaya Kusuma No. 15,73,Jakarta Selatan,1,DKI Jakarta,12160,Indonesia,106.8148,-6.2245,2024-06-23 13:57:35.961202+00:00,2024-06-23 13:57:35.961202+00:00,
7bef1b28-4855-4a91-b14f-5dd323013fb9,"Jl. Merdeka No.10, Kel. Menteng, Kec. Menteng",67,Jakarta Pusat,1,DKI Jakarta,10310,Indonesia,106.8272,-6.1902,2024-06-23 14:23:07.579698+00:00,2024-06-23 14:23:07.579698+00:00,
4ea62e5b-5e3d-4488-ae89-c677f60ffe36,"Jl. Merdeka No.10, Kel. Menteng, Kec. Menteng",67,Jakarta Pusat,1,DKI Jakarta,10310,Indonesia,106.8272,-6.1902,2024-06-23 14:36:23.012763+00:00,2024-06-23 14:36:23.012763+00:00,
24752f2a-5e20-4f36-91fc-c4739f7dc395,"Jl. Merdeka No.10, Kel. Menteng, Kec. Menteng",67,Jakarta Pusat,1,DKI Jakarta,10310,Indonesia,106.8272,-6.1902,2024-06-23 14:43:21.627591+00:00,2024-06-23 14:43:21.627591+00:00,
3bf89095-acf3-4e75-b50e-66e332c857f6,"Jl. Merdeka No.10, Kel. Menteng, Kec. Menteng",67,Jakarta Pusat,1,DKI Jakarta,10310,Indonesia,106.8272,-6.1902,2024-06-23 14:53:09.581563+00:00,2024-06-23 14:53:09.581563+00:00,
69ed0fa8-b8c5-47e5-a157-03cda743f235,"Jl. Merdeka No.10, Kel. Menteng, Kec. Menteng",67,Jakarta Pusat,1,DKI Jakarta,10310,Indonesia,106.8272,-6.1902,2024-06-23 15:16:19.409635+00:00,2024-06-23 15:16:19.409635+00:00,
210776db-1ad9-4282-b79c-e22570ab06f0,"Jl. Merdeka No.10, Kel. Menteng, Kec. Menteng",67,Jakarta Pusat,1,DKI Jakarta,10310,Indonesia,106.8272,-6.1902,2024-06-23 15:18:51.820289+00:00,2024-06-23 15:18:51.820289+00:00,
99939d6c-af91-4eeb-ba3a-a63922f431fa,"Jl. Merdeka No.10, Kel. Menteng, Kec. Menteng",67,Jakarta Pusat,1,DKI Jakarta,10310,Indonesia,106.8272,-6.1902,2024-06-23 15:28:45.648709+00:00,2024-06-23 15:28:45.648709+00:00,
67b7d5cc-6251-4356-bf7f-f30deca852e9,"Jl. Merdeka No.10, Kel. Menteng, Kec. Menteng",67,Jakarta Pusat,1,DKI Jakarta,10310,Indonesia,106.8272,-6.1902,2024-06-23 15:37:21.901271+00:00,2024-06-23 15:37:21.901271+00:00,
718a675e-d9de-4e8d-812f-614383dde779,"Jl. Merdeka No.10, Kel. Menteng, Kec. Menteng",67,Jakarta Pusat,1,DKI Jakarta,10310,Indonesia,106.8272,-6.1902,2024-06-23 15:55:17.069726+00:00,2024-06-23 15:55:17.069726+00:00,
8f54b88a-b87f-4992-a80c-458bd16a1fb5,"Jl. Merdeka No.10, Kel. Menteng, Kec. Menteng",67,Jakarta Pusat,1,DKI Jakarta,10310,Indonesia,106.8272,-6.1902,2024-06-23 16:13:22.007907+00:00,2024-06-23 16:13:22.007907+00:00,
ffd33bac-13fb-4ff3-a82e-6903426874fd,"Jl. Merdeka No.10, Kel. Menteng, Kec. Menteng",67,Jakarta Pusat,1,DKI Jakarta,10310,Indonesia,106.8272,-6.1902,2024-06-23 18:27:24.110165+00:00,2024-06-23 18:27:24.110165+00:00,
3fa32d04-cb0a-47e9-9ad5-81bdac124915,"Jl. Merdeka No.10, Kel. Menteng, Kec. Menteng",67,Jakarta Pusat,1,DKI Jakarta,10310,Indonesia,106.8272,-6.1902,2024-06-23 18:32:46.743878+00:00,2024-06-23 18:32:46.743878+00:00,
17981f4d-ce27-4870-81e8-2a1e49f2aa10,"Jl. Merdeka No.10, Kel. Menteng, Kec. Menteng",67,Jakarta Pusat,1,DKI Jakarta,10310,Indonesia,106.8272,-6.1902,2024-06-23 18:38:51.961346+00:00,2024-06-23 18:38:51.961346+00:00,
75cbafa0-8f4f-48c1-83d4-66adab56de40,"Jl. Merdeka No.10, Kel. Menteng, Kec. Menteng",67,Jakarta Pusat,1,DKI Jakarta,10310,Indonesia,106.8272,-6.1902,2024-06-23 18:39:58.440765+00:00,2024-06-23 18:39:58.440765+00:00,
0e0f5dce-7f16-4852-b1ed-10276d0a55fd,"Villa Bekasi Indah 2, Blok J2 No.27, RT.2/RW.38",54,Bekasi,9,Jawa Barat,17837,Indonesia,147.3272,-42.8821,2024-06-23 19:39:30.464690+00:00,2024-06-23 19:39:30.464690+00:00,
a68fd8da-ddb4-418b-853f-03c37ae3ceda,"Villa Bekasi Indah 2, Blok J2 No.27, RT.2/RW.38",54,Bekasi,9,Jawa Barat,17837,Indonesia,147.3272,-42.8821,2024-06-23 19:39:38.095162+00:00,2024-06-23 19:39:38.095162+00:00,
40d97e13-4fc2-48b5-b755-16f6b10956a8,"Villa Bekasi Indah 2, Blok J2 No.27, RT.2/RW.38",54,Bekasi,9,Jawa Barat,17837,Indonesia,147.3272,-42.8821,2024-06-23 19:39:39.557513+00:00,2024-06-23 19:39:39.557513+00:00,
158a1bfa-8d56-4af1-9d68-e8821f0bfe62,"Villa Bekasi Indah 2, Blok J2 No.27, RT.2/RW.38",54,Bekasi,9,Jawa Barat,17837,Indonesia,147.3272,-42.8821,2024-06-23 19:39:41.305470+00:00,2024-06-23 19:39:41.305470+00:00,
cd0a954d-f164-4556-adc2-e80c7ae32cf6,"Jl. Merdeka No.10, Kel. Menteng, Kec. Menteng",67,Jakarta Pusat,1,DKI Jakarta,10310,Indonesia,106.8272,-6.1902,2024-06-23 21:53:14.224606+00:00,2024-06-23 21:53:14.224606+00:00,
ee81de11-b3ed-457f-97b6-4a86db5fc6da,"Jl. Merdeka No.10, Kel. Menteng, Kec. Menteng",67,Jakarta Pusat,1,DKI Jakarta,10310,Indonesia,106.8272,-6.1902,2024-06-23 22:04:12.504481+00:00,2024-06-23 22:04:12.504481+00:00,
87529b94-6c27-4d70-9346-06500c710816,"Jl. Merdeka No.10, Kel. Menteng, Kec. Menteng",67,Jakarta Pusat,1,DKI Jakarta,10310,Indonesia,106.8272,-6.1902,2024-06-23 22:05:23.961896+00:00,2024-06-23 22:05:23.961896+00:00,
d726882b-c24a-4503-ac8d-6b57616c748d,"Jl. Merdeka No.10, Kel. Menteng, Kec. Menteng",67,Jakarta Pusat,1,DKI Jakarta,10310,Indonesia,106.8272,-6.1902,2024-06-23 22:56:34.099169+00:00,2024-06-23 22:56:34.099169+00:00,
4b7db0be-353e-4ecf-9265-438b96d72da7,"Jl. Merdeka No.10, Kel. Menteng, Kec. Menteng",67,Jakarta Pusat,1,DKI Jakarta,10310,Indonesia,106.8272,-6.1902,2024-06-23 23:12:50.157061+00:00,2024-06-23 23:12:50.157061+00:00,
